CCSDS_OMM_VERS = 2.0
CREATION_DATE  = 
ORIGINATOR     = 

OBJECT_NAME    = STARLINK-36491
OBJECT_ID      = 2026-002F
CENTER_NAME    = EARTH
REF_FRAME      = TEME
TIME_SYSTEM    = UTC
MEAN_ELEMENT_THEORY = SGP/SGP4

EPOCH          = 2026-01-26T14:00:01.000224
MEAN_MOTION    = 15.62164792
ECCENTRICITY   = .00016328
INCLINATION    = 42.9989
RA_OF_ASC_NODE = 205.4537
ARG_OF_PERICENTER = 264.0784
MEAN_ANOMALY   = 30.1295

EPHEMERIS_TYPE = 0
CLASSIFICATION_TYPE = U
NORAD_CAT_ID   = 67310
ELEMENT_SET_NO = 999
REV_AT_EPOCH   = 465
BSTAR          = -.2620256E-1
MEAN_MOTION_DOT = -.2069307E-1
MEAN_MOTION_DDOT = 0

CCSDS_OMM_VERS = 2.0
CREATION_DATE  = 
ORIGINATOR     = 

OBJECT_NAME    = STARLINK-36495
OBJECT_ID      = 2026-002G
CENTER_NAME    = EARTH
REF_FRAME      = TEME
TIME_SYSTEM    = UTC
MEAN_ELEMENT_THEORY = SGP/SGP4

EPOCH          = 2026-01-26T14:00:01.000224
MEAN_MOTION    = 15.62166949
ECCENTRICITY   = .0001536
INCLINATION    = 42.9991
RA_OF_ASC_NODE = 205.4382
ARG_OF_PERICENTER = 259.8275
MEAN_ANOMALY   = 40.1296

EPHEMERIS_TYPE = 0
CLASSIFICATION_TYPE = U
NORAD_CAT_ID   = 67311
ELEMENT_SET_NO = 999
REV_AT_EPOCH   = 480
BSTAR          = -.2621599E-1
MEAN_MOTION_DOT = -.2070305E-1
MEAN_MOTION_DDOT = 0

CCSDS_OMM_VERS = 2.0
CREATION_DATE  = 
ORIGINATOR     = 

OBJECT_NAME    = STARLINK-36485
OBJECT_ID      = 2026-002H
CENTER_NAME    = EARTH
REF_FRAME      = TEME
TIME_SYSTEM    = UTC
MEAN_ELEMENT_THEORY = SGP/SGP4

EPOCH          = 2026-01-26T14:00:01.000224
MEAN_MOTION    = 15.62163687
ECCENTRICITY   = .00015969
INCLINATION    = 42.9989
RA_OF_ASC_NODE = 205.4336
ARG_OF_PERICENTER = 265.5355
MEAN_ANOMALY   = 36.3407

EPHEMERIS_TYPE = 0
CLASSIFICATION_TYPE = U
NORAD_CAT_ID   = 67312
ELEMENT_SET_NO = 999
REV_AT_EPOCH   = 465
BSTAR          = -.26173508E-1
MEAN_MOTION_DOT = -.20672E-1
MEAN_MOTION_DDOT = 0

CCSDS_OMM_VERS = 2.0
CREATION_DATE  = 
ORIGINATOR     = 

OBJECT_NAME    = STARLINK-36445
OBJECT_ID      = 2026-002J
CENTER_NAME    = EARTH
REF_FRAME      = TEME
TIME_SYSTEM    = UTC
MEAN_ELEMENT_THEORY = SGP/SGP4

EPOCH          = 2026-01-26T14:00:01.000224
MEAN_MOTION    = 15.62164256
ECCENTRICITY   = .00016645
INCLINATION    = 42.9988
RA_OF_ASC_NODE = 205.4286
ARG_OF_PERICENTER = 264.0743
MEAN_ANOMALY   = 39.7183

EPHEMERIS_TYPE = 0
CLASSIFICATION_TYPE = U
NORAD_CAT_ID   = 67313
ELEMENT_SET_NO = 999
REV_AT_EPOCH   = 480
BSTAR          = -.261797E-1
MEAN_MOTION_DOT = -.2067722E-1
MEAN_MOTION_DDOT = 0

CCSDS_OMM_VERS = 2.0
CREATION_DATE  = 
ORIGINATOR     = 

OBJECT_NAME    = STARLINK-36476
OBJECT_ID      = 2026-002K
CENTER_NAME    = EARTH
REF_FRAME      = TEME
TIME_SYSTEM    = UTC
MEAN_ELEMENT_THEORY = SGP/SGP4

EPOCH          = 2026-01-26T14:00:01.000224
MEAN_MOTION    = 15.62165530
ECCENTRICITY   = .0001578
INCLINATION    = 42.9988
RA_OF_ASC_NODE = 205.4243
ARG_OF_PERICENTER = 264.6366
MEAN_ANOMALY   = 41.0747

EPHEMERIS_TYPE = 0
CLASSIFICATION_TYPE = U
NORAD_CAT_ID   = 67314
ELEMENT_SET_NO = 999
REV_AT_EPOCH   = 465
BSTAR          = -.26227614E-1
MEAN_MOTION_DOT = -.2071038E-1
MEAN_MOTION_DDOT = 0

CCSDS_OMM_VERS = 2.0
CREATION_DATE  = 
ORIGINATOR     = 

OBJECT_NAME    = STARLINK-36463
OBJECT_ID      = 2026-002L
CENTER_NAME    = EARTH
REF_FRAME      = TEME
TIME_SYSTEM    = UTC
MEAN_ELEMENT_THEORY = SGP/SGP4

EPOCH          = 2026-01-26T14:00:01.000224
MEAN_MOTION    = 15.62164979
ECCENTRICITY   = .00015888
INCLINATION    = 42.9988
RA_OF_ASC_NODE = 205.4140
ARG_OF_PERICENTER = 263.3010
MEAN_ANOMALY   = 46.2437

EPHEMERIS_TYPE = 0
CLASSIFICATION_TYPE = U
NORAD_CAT_ID   = 67315
ELEMENT_SET_NO = 999
REV_AT_EPOCH   = 470
BSTAR          = -.26200786E-1
MEAN_MOTION_DOT = -.2069162E-1
MEAN_MOTION_DDOT = 0

CCSDS_OMM_VERS = 2.0
CREATION_DATE  = 
ORIGINATOR     = 

OBJECT_NAME    = STARLINK-36461
OBJECT_ID      = 2026-002M
CENTER_NAME    = EARTH
REF_FRAME      = TEME
TIME_SYSTEM    = UTC
MEAN_ELEMENT_THEORY = SGP/SGP4

EPOCH          = 2026-01-26T14:00:01.000224
MEAN_MOTION    = 15.62161278
ECCENTRICITY   = .00015711
INCLINATION    = 42.9988
RA_OF_ASC_NODE = 205.4087
ARG_OF_PERICENTER = 264.8027
MEAN_ANOMALY   = 46.6626

EPHEMERIS_TYPE = 0
CLASSIFICATION_TYPE = U
NORAD_CAT_ID   = 67316
ELEMENT_SET_NO = 999
REV_AT_EPOCH   = 480
BSTAR          = -.26156344E-1
MEAN_MOTION_DOT = -.2065826E-1
MEAN_MOTION_DDOT = 0

CCSDS_OMM_VERS = 2.0
CREATION_DATE  = 
ORIGINATOR     = 

OBJECT_NAME    = STARLINK-36450
OBJECT_ID      = 2026-002N
CENTER_NAME    = EARTH
REF_FRAME      = TEME
TIME_SYSTEM    = UTC
MEAN_ELEMENT_THEORY = SGP/SGP4

EPOCH          = 2026-01-26T14:00:01.000224
MEAN_MOTION    = 15.62163561
ECCENTRICITY   = .00017004
INCLINATION    = 42.9987
RA_OF_ASC_NODE = 205.4048
ARG_OF_PERICENTER = 262.3164
MEAN_ANOMALY   = 51.0600

EPHEMERIS_TYPE = 0
CLASSIFICATION_TYPE = U
NORAD_CAT_ID   = 67317
ELEMENT_SET_NO = 999
REV_AT_EPOCH   = 480
BSTAR          = -.26137478E-1
MEAN_MOTION_DOT = -.2064796E-1
MEAN_MOTION_DDOT = 0

CCSDS_OMM_VERS = 2.0
CREATION_DATE  = 
ORIGINATOR     = 

OBJECT_NAME    = STARLINK-36498
OBJECT_ID      = 2026-002P
CENTER_NAME    = EARTH
REF_FRAME      = TEME
TIME_SYSTEM    = UTC
MEAN_ELEMENT_THEORY = SGP/SGP4

EPOCH          = 2026-01-26T14:00:01.000224
MEAN_MOTION    = 15.62164461
ECCENTRICITY   = .0001598
INCLINATION    = 42.9990
RA_OF_ASC_NODE = 205.3941
ARG_OF_PERICENTER = 264.2074
MEAN_ANOMALY   = 53.0063

EPHEMERIS_TYPE = 0
CLASSIFICATION_TYPE = U
NORAD_CAT_ID   = 67318
ELEMENT_SET_NO = 999
REV_AT_EPOCH   = 470
BSTAR          = -.26196662E-1
MEAN_MOTION_DOT = -.2068849E-1
MEAN_MOTION_DDOT = 0

CCSDS_OMM_VERS = 2.0
CREATION_DATE  = 
ORIGINATOR     = 

OBJECT_NAME    = STARLINK-36470
OBJECT_ID      = 2026-002Q
CENTER_NAME    = EARTH
REF_FRAME      = TEME
TIME_SYSTEM    = UTC
MEAN_ELEMENT_THEORY = SGP/SGP4

EPOCH          = 2026-01-26T14:00:01.000224
MEAN_MOTION    = 15.62166479
ECCENTRICITY   = .00016271
INCLINATION    = 42.9989
RA_OF_ASC_NODE = 205.3998
ARG_OF_PERICENTER = 262.6028
MEAN_ANOMALY   = 52.6943

EPHEMERIS_TYPE = 0
CLASSIFICATION_TYPE = U
NORAD_CAT_ID   = 67319
ELEMENT_SET_NO = 999
REV_AT_EPOCH   = 470
BSTAR          = -.26256662E-1
MEAN_MOTION_DOT = -.2073145E-1
MEAN_MOTION_DDOT = 0

CCSDS_OMM_VERS = 2.0
CREATION_DATE  = 
ORIGINATOR     = 

OBJECT_NAME    = STARLINK-36500
OBJECT_ID      = 2026-002R
CENTER_NAME    = EARTH
REF_FRAME      = TEME
TIME_SYSTEM    = UTC
MEAN_ELEMENT_THEORY = SGP/SGP4

EPOCH          = 2026-01-26T14:00:01.000224
MEAN_MOTION    = 15.62169784
ECCENTRICITY   = .00016116
INCLINATION    = 42.9990
RA_OF_ASC_NODE = 205.3909
ARG_OF_PERICENTER = 263.7272
MEAN_ANOMALY   = 55.3996

EPHEMERIS_TYPE = 0
CLASSIFICATION_TYPE = U
NORAD_CAT_ID   = 67320
ELEMENT_SET_NO = 999
REV_AT_EPOCH   = 470
BSTAR          = -.26268923E-1
MEAN_MOTION_DOT = -.207421E-1
MEAN_MOTION_DDOT = 0

CCSDS_OMM_VERS = 2.0
CREATION_DATE  = 
ORIGINATOR     = 

OBJECT_NAME    = STARLINK-36462
OBJECT_ID      = 2026-002S
CENTER_NAME    = EARTH
REF_FRAME      = TEME
TIME_SYSTEM    = UTC
MEAN_ELEMENT_THEORY = SGP/SGP4

EPOCH          = 2026-01-26T14:00:01.000224
MEAN_MOTION    = 15.62167631
ECCENTRICITY   = .00017277
INCLINATION    = 42.9990
RA_OF_ASC_NODE = 205.3813
ARG_OF_PERICENTER = 262.7109
MEAN_ANOMALY   = 60.2503

EPHEMERIS_TYPE = 0
CLASSIFICATION_TYPE = U
NORAD_CAT_ID   = 67321
ELEMENT_SET_NO = 999
REV_AT_EPOCH   = 465
BSTAR          = -.26235139E-1
MEAN_MOTION_DOT = -.207183E-1
MEAN_MOTION_DDOT = 0

