STARLINK-36491          
1 67310U 26002F   26026.58334491 -.02069307  00000+0 -26203-1 0  9992
2 67310  42.9989 205.4537 0001632 264.0784  30.1295 15.62164792  4657
STARLINK-36495          
1 67311U 26002G   26026.58334491 -.02070305  00000+0 -26216-1 0  9997
2 67311  42.9991 205.4382 0001536 259.8275  40.1296 15.62166949  4804
STARLINK-36485          
1 67312U 26002H   26026.58334491 -.02067200  00000+0 -26174-1 0  9991
2 67312  42.9989 205.4336 0001596 265.5355  36.3407 15.62163687  4650
STARLINK-36445          
1 67313U 26002J   26026.58334491 -.02067722  00000+0 -26180-1 0  9998
2 67313  42.9988 205.4286 0001664 264.0743  39.7183 15.62164256  4803
STARLINK-36476          
1 67314U 26002K   26026.58334491 -.02071038  00000+0 -26228-1 0  9997
2 67314  42.9988 205.4243 0001578 264.6366  41.0747 15.62165530  4659
STARLINK-36463          
1 67315U 26002L   26026.58334491 -.02069162  00000+0 -26201-1 0  9994
2 67315  42.9988 205.4140 0001588 263.3010  46.2437 15.62164979  4704
STARLINK-36461          
1 67316U 26002M   26026.58334491 -.02065826  00000+0 -26156-1 0  9997
2 67316  42.9988 205.4087 0001571 264.8027  46.6626 15.62161278  4805
STARLINK-36450          
1 67317U 26002N   26026.58334491 -.02064796  00000+0 -26137-1 0  9992
2 67317  42.9987 205.4048 0001700 262.3164  51.0600 15.62163561  4800
STARLINK-36498          
1 67318U 26002P   26026.58334491 -.02068849  00000+0 -26197-1 0  9992
2 67318  42.9990 205.3941 0001598 264.2074  53.0063 15.62164461  4706
STARLINK-36470          
1 67319U 26002Q   26026.58334491 -.02073145  00000+0 -26257-1 0  9995
2 67319  42.9989 205.3998 0001627 262.6028  52.6943 15.62166479  4704
STARLINK-36500          
1 67320U 26002R   26026.58334491 -.02074210  00000+0 -26269-1 0  9994
2 67320  42.9990 205.3909 0001611 263.7272  55.3996 15.62169784  4706
STARLINK-36462          
1 67321U 26002S   26026.58334491 -.02071830  00000+0 -26235-1 0  9993
2 67321  42.9990 205.3813 0001727 262.7109  60.2503 15.62167631  4659
